NORAD_CAT_ID,OBJECT_NAME,OBJECT_TYPE,EPOCH,MEAN_MOTION,ECCENTRICITY,INCLINATION,RA_OF_ASC_NODE,ARG_OF_PERICENTER,MEAN_ANOMALY,BSTAR,MEAN_MOTION_DOT,MEAN_MOTION_DDOT,TLE_LINE0,TLE_LINE1,TLE_LINE2,SEMIMAJOR_AXIS,PERIOD,APOGEE,PERIGEE,DECAYED
49163.0,STARLINK-3088,PAYLOAD,2023-07-28 13:53:31,14.983288,0.0003462,70.0,162.6298,266.6207,93.4556,-4.8981e-05,-6.77e-06,0.0,0 STARLINK-3088,1 49163U 21082AK  23209.57883561 -.00000677  00000-0 -48981-4 0  9991,2 49163  70.0000 162.6298 0003462 266.6207  93.4556 14.98328800104561,6950.197,96.107,574.468,569.655,0.0
49163.0,STARLINK-3088,PAYLOAD,2023-07-29 02:42:35,14.98336407,0.0003481,69.9999,161.2824,268.2246,91.8514,-1.2918e-05,-2.47e-06,0.0,0 STARLINK-3088,1 49163U 21082AK  23210.11290993 -.00000247  00000-0 -12918-4 0  9998,2 49163  69.9999 161.2824 0003481 268.2246  91.8514 14.98336407104655,6950.173,96.107,574.457,569.619,0.0
49163.0,STARLINK-3088,PAYLOAD,2023-07-29 13:55:32,14.98324294,0.0003047,70.0001,160.1041,268.6572,91.4238,0.00021757,2.504e-05,0.0,0 STARLINK-3088,1 49163U 21082AK  23210.58023255  .00002504  00000-0  21757-3 0  9990,2 49163  70.0001 160.1041 0003047 268.6572  91.4238 14.98324294104723,6950.211,96.107,574.193,569.958,0.0
49163.0,STARLINK-3088,PAYLOAD,2023-07-31 01:10:29,14.98332466,0.0003234,70.0002,156.4016,268.5153,91.5635,4.4049e-05,4.33e-06,0.0,0 STARLINK-3088,1 49163U 21082AK  23212.04895307  .00000433  00000-0  44049-4 0  9997,2 49163  70.0002 156.4016 0003234 268.5153  91.5635 14.98332466104942,6950.185,96.107,574.298,569.803,0.0
49163.0,STARLINK-3088,PAYLOAD,2023-08-01 01:12:30,14.98328226,0.0003067,70.0006,153.8772,269.9391,90.1417,4.7072e-05,4.69e-06,0.0,0 STARLINK-3088,1 49163U 21082AK  23213.05035521  .00000469  00000-0  47072-4 0  9991,2 49163  70.0006 153.8772 0003067 269.9391  90.1417 14.98328226105098,6950.198,96.107,574.195,569.932,0.0
49163.0,STARLINK-3088,PAYLOAD,2023-08-02 02:50:39,14.98332252,0.0003,70.0003,151.1835,266.3163,93.7653,4.3884e-05,4.31e-06,0.0,0 STARLINK-3088,1 49163U 21082AK  23214.11851230  .00000431  00000-0  43884-4 0  9998,2 49163  70.0003 151.1835 0003000 266.3163  93.7653 14.98332252105254,6950.186,96.107,574.136,569.966,0.0
49163.0,STARLINK-3088,PAYLOAD,2023-08-03 02:52:39,14.9833698,0.0002837,70.0006,148.6602,261.3762,98.7076,0.00012509,1.4e-05,0.0,0 STARLINK-3088,1 49163U 21082AK  23215.11990604  .00001400  00000-0  12509-3 0  9994,2 49163  70.0006 148.6602 0002837 261.3762  98.7076 14.98336980105400,6950.171,96.107,574.008,570.065,0.0
49163.0,STARLINK-3088,PAYLOAD,2023-08-04 02:54:41,14.98323834,0.0002639,70.0012,146.1373,254.4176,105.6692,-2.3646e-05,-3.75e-06,0.0,0 STARLINK-3088,1 49163U 21082AK  23216.12131857 -.00000375  00000-0 -23646-4 0  9990,2 49163  70.0012 146.1373 0002639 254.4176 105.6692 14.98323834105559,6950.212,96.107,573.911,570.243,0.0
49163.0,STARLINK-3088,PAYLOAD,2023-08-05 02:56:42,14.98335476,0.0002643,70.0013,143.6124,251.7075,108.3797,2.1828e-05,1.68e-06,0.0,0 STARLINK-3088,1 49163U 21082AK  23217.12271002  .00000168  00000-0  21828-4 0  9996,2 49163  70.0013 143.6124 0002643 251.7075 108.3797 14.98335476105707,6950.176,96.107,573.878,570.204,0.0
49163.0,STARLINK-3088,PAYLOAD,2023-08-06 04:34:50,14.98340252,0.0003005,70.0002,140.9168,270.5436,89.5378,0.00023427,2.704e-05,0.0,0 STARLINK-3088,1 49163U 21082AK  23218.19085954  .00002704  00000-0  23427-3 0  9997,2 49163  70.0002 140.9168 0003005 270.5436  89.5378 14.98340252105866,6950.161,96.106,574.115,569.938,0.0
49163.0,STARLINK-3088,PAYLOAD,2023-08-06 19:00:04,14.9832647,0.0002698,70.0006,139.4033,270.9057,89.1793,-9.0283e-05,-1.17e-05,0.0,0 STARLINK-3088,1 49163U 21082AK  23218.79171797 -.00001170  00000-0 -90283-4 0  9997,2 49163  70.0006 139.4033 0002698 270.9057  89.1793 14.98326470105957,6950.204,96.107,573.944,570.194,0.0
49163.0,STARLINK-3088,PAYLOAD,2023-08-07 19:02:05,14.98333357,0.0003153,69.9996,136.8767,267.3511,92.7287,-4.777e-05,-6.63e-06,0.0,0 STARLINK-3088,1 49163U 21082AK  23219.79311440 -.00000663  00000-0 -47770-4 0  9998,2 49163  69.9996 136.8767 0003153 267.3511  92.7287 14.98333357106107,6950.183,96.107,574.239,569.856,0.0
49163.0,STARLINK-3088,PAYLOAD,2023-08-08 04:38:52,14.98340118,0.0002949,70.0002,135.8667,266.294,93.7882,6.6208e-05,6.97e-06,0.0,0 STARLINK-3088,1 49163U 21082AK  23220.19366750  .00000697  00000-0  66208-4 0  9990,2 49163  70.0002 135.8667 0002949 266.2940  93.7882 14.98340118106163,6950.162,96.106,574.076,569.977,0.0
49163.0,STARLINK-3088,PAYLOAD,2023-08-08 17:27:57,14.98327716,0.0003005,70.0,134.5202,264.7381,95.3435,0.0002846,3.304e-05,0.0,0 STARLINK-3088,1 49163U 21082AK  23220.72775010  .00003304  00000-0  28460-3 0  9997,2 49163  70.0000 134.5202 0003005 264.7381  95.3435 14.98327716106248,6950.2,96.107,574.153,569.976,0.0
49163.0,STARLINK-3088,PAYLOAD,2023-08-09 22:18:23,14.98330425,0.0002823,70.0001,131.4907,265.9446,94.139,-6.2839e-05,-8.43e-06,0.0,0 STARLINK-3088,1 49163U 21082AK  23221.92943493 -.00000843  00000-0 -62839-4 0  9998,2 49163  70.0001 131.4907 0002823 265.9446  94.1390 14.98330425106427,6950.192,96.107,574.019,570.095,0.0
49163.0,STARLINK-3088,PAYLOAD,2023-08-10 23:56:31,14.98333104,0.0002898,69.9985,128.7978,267.8692,92.2135,-1.8279e-05,-3.11e-06,0.0,0 STARLINK-3088,1 49163U 21082AK  23222.99758985 -.00000311  00000-0 -18279-4 0  9995,2 49163  69.9985 128.7978 0002898 267.8692  92.2135 14.98333104106588,6950.183,96.107,574.062,570.034,0.0
49163.0,STARLINK-3088,PAYLOAD,2023-08-12 01:34:40,14.98332811,0.0003159,69.9996,126.1038,265.7613,94.3185,6.9003e-05,7.3e-06,0.0,0 STARLINK-3088,1 49163U 21082AK  23224.06574717  .00000730  00000-0  69003-4 0  9998,2 49163  69.9996 126.1038 0003159 265.7613  94.3185 14.98332811106740,6950.184,96.107,574.245,569.854,0.0
49163.0,STARLINK-3088,PAYLOAD,2023-08-13 00:00:33,14.98321944,0.000307,69.9995,123.7481,269.0809,90.9999,0.0002849,3.307e-05,0.0,0 STARLINK-3088,1 49163U 21082AK  23225.00039012  .00003307  00000-0  28490-3 0  9994,2 49163  69.9995 123.7481 0003070 269.0809  90.9999 14.98321944106885,6950.218,96.108,574.217,569.949,0.0
49163.0,STARLINK-3088,PAYLOAD,2023-08-14 01:38:42,14.98333338,0.0003027,69.9994,121.0545,268.6767,91.4045,6.7489e-05,7.12e-06,0.0,0 STARLINK-3088,1 49163U 21082AK  23226.06854662  .00000712  00000-0  67489-4 0  9996,2 49163  69.9994 121.0545 0003027 268.6767  91.4045 14.98333338107043,6950.183,96.107,574.151,569.944,0.0
49163.0,STARLINK-3088,PAYLOAD,2023-08-15 01:40:42,14.9833908,0.0002892,69.9994,118.5298,270.8388,89.244,0.00010785,1.194e-05,0.0,0 STARLINK-3088,1 49163U 21082AK  23227.06994159  .00001194  00000-0  10785-3 0  9994,2 49163  69.9994 118.5298 0002892 270.8388  89.2440 14.98339080107192,6950.165,96.106,574.04,570.02,0.0
49163.0,STARLINK-3088,PAYLOAD,2023-08-15 16:05:52,14.98370521,0.0003128,69.9994,117.0147,269.4343,90.6458,0.0004367,5.127e-05,0.0,0 STARLINK-3088,1 49163U 21082AK  23227.67074302  .00005127  00000-0  43670-3 0  9999,2 49163  69.9994 117.0147 0003128 269.4343  90.6458 14.98370521107287,6950.068,96.104,574.107,569.759,0.0
49163.0,STARLINK-3088,PAYLOAD,2023-08-16 01:42:43,14.98324901,0.0003235,69.9993,116.0048,270.2071,89.8717,-8.5396e-05,-1.112e-05,0.0,0 STARLINK-3088,1 49163U 21082AK  23228.07134088 -.00001112  00000-0 -85396-4 0  9996,2 49163  69.9993 116.0048 0003235 270.2071  89.8717 14.98324901107348,6950.209,96.107,574.322,569.825,0.0
49163.0,STARLINK-3088,PAYLOAD,2023-08-17 03:20:52,14.9833831,0.0003032,69.9997,113.3093,270.9469,89.1342,-0.00033099,-4.041e-05,0.0,0 STARLINK-3088,1 49163U 21082AK  23229.13950205 -.00004041  00000-0 -33099-3 0  9997,2 49163  69.9997 113.3093 0003032 270.9469  89.1342 14.98338310107509,6950.167,96.106,574.139,569.925,0.0
49163.0,STARLINK-3088,PAYLOAD,2023-08-18 16:11:58,14.98321276,0.0003175,69.9991,109.4399,270.3413,89.7382,9.8283e-05,1.08e-05,0.0,0 STARLINK-3088,1 49163U 21082AK  23230.67498636  .00001080  00000-0  98283-4 0  9998,2 49163  69.9991 109.4399 0003175 270.3413  89.7382 14.98321276107737,6950.22,96.108,574.292,569.878,0.0
49163.0,STARLINK-3088,PAYLOAD,2023-08-19 01:48:46,14.98327307,0.0003159,69.9994,108.4293,269.0156,91.0641,0.00015658,1.776e-05,0.0,0 STARLINK-3088,1 49163U 21082AK  23231.07554309  .00001776  00000-0  15658-3 0  9999,2 49163  69.9994 108.4293 0003159 269.0156  91.0641 14.98327307107794,6950.201,96.107,574.262,569.871,0.0
49163.0,STARLINK-3088,PAYLOAD,2023-08-20 01:50:48,14.98332853,0.0003143,69.9996,105.9041,269.2082,90.8717,3.7475e-05,3.54e-06,0.0,0 STARLINK-3088,1 49163U 21082AK  23232.07694458  .00000354  00000-0  37475-4 0  9993,2 49163  69.9996 105.9041 0003143 269.2082  90.8717 14.98332853107942,6950.184,96.107,574.234,569.865,0.0
49163.0,STARLINK-3088,PAYLOAD,2023-08-21 01:52:48,14.98339842,0.0003155,69.9991,103.3801,268.1485,91.9313,0.00017089,1.947e-05,0.0,0 STARLINK-3088,1 49163U 21082AK  23233.07833665  .00001947  00000-0  17089-3 0  9996,2 49163  69.9991 103.3801 0003155 268.1485  91.9313 14.98339842108097,6950.162,96.106,574.22,569.835,0.0
49163.0,STARLINK-3088,PAYLOAD,2023-08-21 19:30:17,14.98331378,0.0003131,69.9989,101.5285,267.0629,93.0172,5.6506e-05,5.81e-06,0.0,0 STARLINK-3088,1 49163U 21082AK  23233.81270432  .00000581  00000-0  56506-4 0  9996,2 49163  69.9989 101.5285 0003131 267.0629  93.0172 14.98331378108207,6950.189,96.107,574.23,569.878,0.0
49163.0,STARLINK-3088,PAYLOAD,2023-08-23 00:20:42,14.9833252,0.0003147,69.9992,98.4993,269.9339,90.1459,1.0596e-05,3.3e-07,0.0,0 STARLINK-3088,1 49163U 21082AK  23235.01438425  .00000033  00000-0  10596-4 0  9999,2 49163  69.9992  98.4993 0003147 269.9339  90.1459 14.98332520108382,6950.185,96.107,574.237,569.863,0.0
49163.0,STARLINK-3088,PAYLOAD,2023-08-24 09:59:32,14.98330559,0.0003157,69.9993,94.9634,268.8582,91.2216,9.2954e-05,1.016e-05,0.0,0 STARLINK-3088,1 49163U 21082AK  23236.41634368  .00001016  00000-0  92954-4 0  9998,2 49163  69.9993  94.9634 0003157 268.8582  91.2216 14.98330559108580,6950.191,96.107,574.25,569.862,0.0
